{
  "type": "FeatureCollection",
  "features": [
    {
      "type": "Feature",
      "properties": {
        "norad_id": 30477,
        "name": "FENGYUN 1C DEB",
        "group": "fengyun-1c-debris",
        "lat": 61.728877035109875,
        "lon": 44.593114766834965,
        "alt_km": 1352.097733134794,
        "timestamp": "2025-12-04T19:33:59.879866+00:00",
        "meta_object_name": "FENGYUN 1C DEB",
        "meta_object_id": "1999-025AGQ",
        "meta_epoch": "2025-12-03T21:45:23.531904",
        "meta_mean_motion": 13.23770545,
        "meta_eccentricity": 0.0431472,
        "meta_inclination": 99.4254,
        "meta_ra_of_asc_node": 61.7592,
        "meta_arg_of_pericenter": 298.2366,
        "meta_mean_anomaly": 112.4586,
        "meta_ephemeris_type": 0,
        "meta_classification_type": "U",
        "meta_norad_cat_id": 30477,
        "meta_element_set_no": 999,
        "meta_rev_at_epoch": 90602,
        "meta_bstar": 0.0038132819,
        "meta_mean_motion_dot": 2.623e-05,
        "meta_mean_motion_ddot": 0,
        "tle_line1": "1 30477U 99025AGQ 25337.90652236  .00002623  00000+0  38133-2 0  9991",
        "tle_line2": "2 30477  99.4254  61.7592 0431472 298.2366 112.4586 13.23770545906024"
      },
      "geometry": {
        "type": "Point",
        "coordinates": [
          44.593114766834965,
          61.728877035109875
        ]
      }
    },
    {
      "type": "Feature",
      "properties": {
        "norad_id": 30480,
        "name": "FENGYUN 1C DEB",
        "group": "fengyun-1c-debris",
        "lat": -79.85061675499783,
        "lon": 120.12524765409783,
        "alt_km": 795.0410075093259,
        "timestamp": "2025-12-04T19:33:59.879875+00:00",
        "meta_object_name": "FENGYUN 1C DEB",
        "meta_object_id": "1999-025AGS",
        "meta_epoch": "2025-12-04T07:13:20.070336",
        "meta_mean_motion": 14.3358234,
        "meta_eccentricity": 0.01659537,
        "meta_inclination": 98.2244,
        "meta_ra_of_asc_node": 353.5289,
        "meta_arg_of_pericenter": 170.7893,
        "meta_mean_anomaly": 318.3697,
        "meta_ephemeris_type": 0,
        "meta_classification_type": "U",
        "meta_norad_cat_id": 30480,
        "meta_element_set_no": 999,
        "meta_rev_at_epoch": 98547,
        "meta_bstar": 0.00040878475,
        "meta_mean_motion_dot": 1.276e-05,
        "meta_mean_motion_ddot": 0,
        "tle_line1": "1 30480U 99025AGS 25338.30092674  .00001276  00000+0  40878-3 0  9997",
        "tle_line2": "2 30480  98.2244 353.5289 0165953 170.7893 318.3697 14.33582340985478"
      },
      "geometry": {
        "type": "Point",
        "coordinates": [
          120.12524765409783,
          -79.85061675499783
        ]
      }
    },
    {
      "type": "Feature",
      "properties": {
        "norad_id": 30481,
        "name": "FENGYUN 1C DEB",
        "group": "fengyun-1c-debris",
        "lat": -37.449469146949255,
        "lon": 169.8839766195621,
        "alt_km": 700.7973857319303,
        "timestamp": "2025-12-04T19:33:59.879884+00:00",
        "meta_object_name": "FENGYUN 1C DEB",
        "meta_object_id": "1999-025AGT",
        "meta_epoch": "2025-12-04T00:25:48.016704",
        "meta_mean_motion": 14.38975646,
        "meta_eccentricity": 0.02231979,
        "meta_inclination": 98.3372,
        "meta_ra_of_asc_node": 355.5572,
        "meta_arg_of_pericenter": 286.3518,
        "meta_mean_anomaly": 125.606,
        "meta_ephemeris_type": 0,
        "meta_classification_type": "U",
        "meta_norad_cat_id": 30481,
        "meta_element_set_no": 999,
        "meta_rev_at_epoch": 98358,
        "meta_bstar": 0.001134666,
        "meta_mean_motion_dot": 4.634e-05,
        "meta_mean_motion_ddot": 0,
        "tle_line1": "1 30481U 99025AGT 25338.01791686  .00004634  00000+0  11347-2 0  9994",
        "tle_line2": "2 30481  98.3372 355.5572 0223197 286.3518 125.6060 14.38975646983585"
      },
      "geometry": {
        "type": "Point",
        "coordinates": [
          169.8839766195621,
          -37.449469146949255
        ]
      }
    },
    {
      "type": "Feature",
      "properties": {
        "norad_id": 30486,
        "name": "FENGYUN 1C DEB",
        "group": "fengyun-1c-debris",
        "lat": -36.50595135144919,
        "lon": -175.97758813896135,
        "alt_km": 295.6568636437896,
        "timestamp": "2025-12-04T19:33:59.879893+00:00",
        "meta_object_name": "FENGYUN 1C DEB",
        "meta_object_id": "1999-025AGY",
        "meta_epoch": "2025-12-02T13:44:42.280512",
        "meta_mean_motion": 15.87023025,
        "meta_eccentricity": 0.00187191,
        "meta_inclination": 98.805,
        "meta_ra_of_asc_node": 7.713,
        "meta_arg_of_pericenter": 230.211,
        "meta_mean_anomaly": 129.7509,
        "meta_ephemeris_type": 0,
        "meta_classification_type": "U",
        "meta_norad_cat_id": 30486,
        "meta_element_set_no": 999,
        "meta_rev_at_epoch": 1592,
        "meta_bstar": 0.0025946463,
        "meta_mean_motion_dot": 0.00673876,
        "meta_mean_motion_ddot": 0.0001747163,
        "tle_line1": "1 30486U 99025AGY 25336.57271158  .00673876  17472-3  25946-2 0  9990",
        "tle_line2": "2 30486  98.8050   7.7130 0018719 230.2110 129.7509 15.87023025 15929"
      },
      "geometry": {
        "type": "Point",
        "coordinates": [
          -175.97758813896135,
          -36.50595135144919
        ]
      }
    },
    {
      "type": "Feature",
      "properties": {
        "norad_id": 30489,
        "name": "FENGYUN 1C DEB",
        "group": "fengyun-1c-debris",
        "lat": 16.066664918299935,
        "lon": -8.361829224024273,
        "alt_km": 835.785398474306,
        "timestamp": "2025-12-04T19:33:59.879903+00:00",
        "meta_object_name": "FENGYUN 1C DEB",
        "meta_object_id": "1999-025AHB",
        "meta_epoch": "2025-12-03T12:00:47.743776",
        "meta_mean_motion": 14.15801844,
        "meta_eccentricity": 0.0138959,
        "meta_inclination": 98.4693,
        "meta_ra_of_asc_node": 352.8475,
        "meta_arg_of_pericenter": 291.8664,
        "meta_mean_anomaly": 225.6861,
        "meta_ephemeris_type": 0,
        "meta_classification_type": "U",
        "meta_norad_cat_id": 30489,
        "meta_element_set_no": 999,
        "meta_rev_at_epoch": 97256,
        "meta_bstar": 0.00041111807,
        "meta_mean_motion_dot": 8.45e-06,
        "meta_mean_motion_ddot": 0,
        "tle_line1": "1 30489U 99025AHB 25337.50055259  .00000845  00000+0  41112-3 0  9998",
        "tle_line2": "2 30489  98.4693 352.8475 0138959 291.8664 225.6861 14.15801844972565"
      },
      "geometry": {
        "type": "Point",
        "coordinates": [
          -8.361829224024273,
          16.066664918299935
        ]
      }
    },
    {
      "type": "Feature",
      "properties": {
        "norad_id": 30490,
        "name": "FENGYUN 1C DEB",
        "group": "fengyun-1c-debris",
        "lat": -57.91437695514207,
        "lon": -83.97395468853539,
        "alt_km": 494.4807444449734,
        "timestamp": "2025-12-04T19:33:59.879912+00:00",
        "meta_object_name": "FENGYUN 1C DEB",
        "meta_object_id": "1999-025AHC",
        "meta_epoch": "2025-12-04T02:47:18.764160",
        "meta_mean_motion": 15.25736095,
        "meta_eccentricity": 0.0052669,
        "meta_inclination": 98.3357,
        "meta_ra_of_asc_node": 108.7721,
        "meta_arg_of_pericenter": 151.3377,
        "meta_mean_anomaly": 209.0772,
        "meta_ephemeris_type": 0,
        "meta_classification_type": "U",
        "meta_norad_cat_id": 30490,
        "meta_element_set_no": 999,
        "meta_rev_at_epoch": 99364,
        "meta_bstar": 0.0082498335,
        "meta_mean_motion_dot": 0.00224985,
        "meta_mean_motion_ddot": 0,
        "tle_line1": "1 30490U 99025AHC 25338.11618940  .00224985  00000+0  82498-2 0  9994",
        "tle_line2": "2 30490  98.3357 108.7721 0052669 151.3377 209.0772 15.25736095993645"
      },
      "geometry": {
        "type": "Point",
        "coordinates": [
          -83.97395468853539,
          -57.91437695514207
        ]
      }
    },
    {
      "type": "Feature",
      "properties": {
        "norad_id": 30492,
        "name": "FENGYUN 1C DEB",
        "group": "fengyun-1c-debris",
        "lat": -3.385783666988831,
        "lon": 171.6643264591098,
        "alt_km": 733.9804782071624,
        "timestamp": "2025-12-04T19:33:59.879921+00:00",
        "meta_object_name": "FENGYUN 1C DEB",
        "meta_object_id": "1999-025AHE",
        "meta_epoch": "2025-12-03T17:55:11.029152",
        "meta_mean_motion": 14.51455273,
        "meta_eccentricity": 0.00956694,
        "meta_inclination": 102.3261,
        "meta_ra_of_asc_node": 350.8449,
        "meta_arg_of_pericenter": 87.1916,
        "meta_mean_anomaly": 274.0209,
        "meta_ephemeris_type": 0,
        "meta_classification_type": "U",
        "meta_norad_cat_id": 30492,
        "meta_element_set_no": 999,
        "meta_rev_at_epoch": 96764,
        "meta_bstar": 0.004507028,
        "meta_mean_motion_dot": 0.00019076,
        "meta_mean_motion_ddot": 0,
        "tle_line1": "1 30492U 99025AHE 25337.74665543  .00019076  00000+0  45070-2 0  9993",
        "tle_line2": "2 30492 102.3261 350.8449 0095669  87.1916 274.0209 14.51455273967648"
      },
      "geometry": {
        "type": "Point",
        "coordinates": [
          171.6643264591098,
          -3.385783666988831
        ]
      }
    }
  ]
}